CENTAURI-6              
1 59451U 24066K   26068.32290132  .00007311  00000+0  52686-3 0  9997
2 59451  45.6063  55.7055 0002534 285.4438  74.6166 15.04786474105074
STARLINK-34714          
1 64939U 25158H   26068.64335227  .00006953  00000+0  48537-3 0  9998
2 64939  97.6029 294.1154 0001395  61.9210 298.2158 15.05667828 35190
