[{"OBJECT_NAME":"CENTAURI-6","OBJECT_ID":"2024-066K","EPOCH":"2026-03-09T07:44:58.674048","MEAN_MOTION":15.04786474,"ECCENTRICITY":0.00025343,"INCLINATION":45.6063,"RA_OF_ASC_NODE":55.7055,"ARG_OF_PERICENTER":285.4438,"MEAN_ANOMALY":74.6166,"EPHEMERIS_TYPE":0,"CLASSIFICATION_TYPE":"U","NORAD_CAT_ID":59451,"ELEMENT_SET_NO":999,"REV_AT_EPOCH":10507,"BSTAR":0.00052686271,"MEAN_MOTION_DOT":7.311e-5,"MEAN_MOTION_DDOT":0},{"OBJECT_NAME":"STARLINK-34714","OBJECT_ID":"2025-158H","EPOCH":"2026-03-09T15:26:25.636128","MEAN_MOTION":15.05667828,"ECCENTRICITY":0.0001395,"INCLINATION":97.6029,"RA_OF_ASC_NODE":294.1154,"ARG_OF_PERICENTER":61.921,"MEAN_ANOMALY":298.2158,"EPHEMERIS_TYPE":0,"CLASSIFICATION_TYPE":"U","NORAD_CAT_ID":64939,"ELEMENT_SET_NO":999,"REV_AT_EPOCH":3519,"BSTAR":0.00048537,"MEAN_MOTION_DOT":6.953e-5,"MEAN_MOTION_DDOT":0}]
